start=new Date('2023-02-03T00:00:00.000Z').valueOf();
sats=[{"ECCENTRICITY":"0.00013380","REV_AT_EPOCH":"16931","PERIAPSIS":"546.260","MEAN_ELEMENT_THEORY":"SGP4","MEAN_MOTION_DOT":"0.00003875","OBJECT_TYPE":"PAYLOAD","OBJECT_NAME":"STARLINK-1111","MEAN_ANOMALY":"265.8230","TLE_LINE1":"1 44924U 20001L   23033.26903308  .00003875  00000-0  27880-3 0  9999","DECAY_DATE":null,"CLASSIFICATION_TYPE":"U","MEAN_MOTION_DDOT":"0.0000000000000","REF_FRAME":"TEME","COUNTRY_CODE":"US","SITE":"AFETR","FILE":"3768366","INCLINATION":"53.0539","TIME_SYSTEM":"UTC","CENTER_NAME":"EARTH","RCS_SIZE":"LARGE","MEAN_MOTION":"15.06408800","APOAPSIS":"548.113","EPHEMERIS_TYPE":"0","NORAD_CAT_ID":"44924","BSTAR":"0.00027880000000","GP_ID":"224238843","ELEMENT_SET_NO":"999","PERIOD":"95.592","LAUNCH_DATE":"2020-01-07","RA_OF_ASC_NODE":"25.7764","TLE_LINE2":"2 44924  53.0539  25.7764 0001338  94.2912 265.8230 15.06408800169311","SEMIMAJOR_AXIS":"6925.322","EPOCH":"2023-02-02T06:27:24.458112","ARG_OF_PERICENTER":"94.2912","OBJECT_ID":"2020-001L"},{"GP_ID":"224237604","BSTAR":"0.00034610000000","NORAD_CAT_ID":"44925","APOAPSIS":"548.198","MEAN_MOTION":"15.06406697","EPHEMERIS_TYPE":"0","ELEMENT_SET_NO":"999","PERIOD":"95.592","TLE_LINE2":"2 44925  53.0544  24.8068 0001451  92.8521 267.2634 15.06406697169340","SEMIMAJOR_AXIS":"6925.328","RA_OF_ASC_NODE":"24.8068","LAUNCH_DATE":"2020-01-07","OBJECT_ID":"2020-001M","ARG_OF_PERICENTER":"92.8521","EPOCH":"2023-02-02T11:35:15.315360","MEAN_ELEMENT_THEORY":"SGP4","PERIAPSIS":"546.188","ECCENTRICITY":"0.00014510","REV_AT_EPOCH":"16934","CLASSIFICATION_TYPE":"U","TLE_LINE1":"1 44925U 20001M   23033.48281615  .00004878  00000-0  34610-3 0  9997","MEAN_ANOMALY":"267.2634","DECAY_DATE":null,"OBJECT_NAME":"STARLINK-1112","OBJECT_TYPE":"PAYLOAD","MEAN_MOTION_DOT":"0.00004878","FILE":"3768366","SITE":"AFETR","COUNTRY_CODE":"US","MEAN_MOTION_DDOT":"0.0000000000000","REF_FRAME":"TEME","RCS_SIZE":"LARGE","CENTER_NAME":"EARTH","TIME_SYSTEM":"UTC","INCLINATION":"53.0544"},{"MEAN_MOTION":"15.06399334","APOAPSIS":"548.326","EPHEMERIS_TYPE":"0","NORAD_CAT_ID":"44926","BSTAR":"0.00010222000000","GP_ID":"224237351","ELEMENT_SET_NO":"999","PERIOD":"95.592","LAUNCH_DATE":"2020-01-07","RA_OF_ASC_NODE":"25.4337","TLE_LINE2":"2 44926  53.0329  25.4337 0001603  97.6622 262.4548 15.06399334170018","SEMIMAJOR_AXIS":"6925.351","EPOCH":"2023-02-02T08:18:53.064000","ARG_OF_PERICENTER":"97.6622","OBJECT_ID":"2020-001N","PERIAPSIS":"546.105","REV_AT_EPOCH":"17001","ECCENTRICITY":"0.00016030","MEAN_ELEMENT_THEORY":"SGP4","OBJECT_TYPE":"PAYLOAD","MEAN_MOTION_DOT":"0.00001241","TLE_LINE1":"1 44926U 20001N   23033.34644750  .00001241  00000-0  10222-3 0  9990","DECAY_DATE":null,"MEAN_ANOMALY":"262.4548","OBJECT_NAME":"STARLINK-1113","CLASSIFICATION_TYPE":"U","COUNTRY_CODE":"US","REF_FRAME":"TEME","MEAN_MOTION_DDOT":"0.0000000000000","SITE":"AFETR","FILE":"3768366","INCLINATION":"53.0329","TIME_SYSTEM":"UTC","CENTER_NAME":"EARTH","RCS_SIZE":"LARGE"},{"PERIOD":"95.592","ELEMENT_SET_NO":"999","GP_ID":"224238591","BSTAR":"0.00000821650000","NORAD_CAT_ID":"44927","APOAPSIS":"548.269","MEAN_MOTION":"15.06397292","EPHEMERIS_TYPE":"0","OBJECT_ID":"2020-001P","ARG_OF_PERICENTER":"88.2085","EPOCH":"2023-02-02T08:40:06.329568","TLE_LINE2":"2 44927  53.0569  25.3462 0001512  88.2085 271.9078 15.06397292169338","SEMIMAJOR_AXIS":"6925.357","RA_OF_ASC_NODE":"25.3462","LAUNCH_DATE":"2020-01-07","CLASSIFICATION_TYPE":"U","OBJECT_NAME":"STARLINK-1114","TLE_LINE1":"1 44927U 20001P   23033.36118437 -.00000159  00000-0  82165-5 0  9996","MEAN_ANOMALY":"271.9078","DECAY_DATE":null,"MEAN_MOTION_DOT":"-0.00000159","OBJECT_TYPE":"PAYLOAD","MEAN_ELEMENT_THEORY":"SGP4","REV_AT_EPOCH":"16933","ECCENTRICITY":"0.00015120","PERIAPSIS":"546.175","RCS_SIZE":"LARGE","TIME_SYSTEM":"UTC","CENTER_NAME":"EARTH","INCLINATION":"53.0569","FILE":"3768366","SITE":"AFETR","MEAN_MOTION_DDOT":"0.0000000000000","REF_FRAME":"TEME","COUNTRY_CODE":"US"},{"TLE_LINE1":"1 44928U 20001Q   23033.35749895 -.00000142  00000-0  93337-5 0  9999","MEAN_ANOMALY":"261.2357","DECAY_DATE":null,"OBJECT_NAME":"STARLINK-1119","CLASSIFICATION_TYPE":"U","OBJECT_TYPE":"PAYLOAD","MEAN_MOTION_DOT":"-0.00000142","MEAN_ELEMENT_THEORY":"SGP4","PERIAPSIS":"546.229","ECCENTRICITY":"0.00014470","REV_AT_EPOCH":"16933","TIME_SYSTEM":"UTC","CENTER_NAME":"EARTH","RCS_SIZE":"LARGE","INCLINATION":"53.0547","SITE":"AFETR","FILE":"3768366","COUNTRY_CODE":"US","REF_FRAME":"TEME","MEAN_MOTION_DDOT":"0.0000000000000","PERIOD":"95.593","ELEMENT_SET_NO":"999","BSTAR":"0.00000933370000","GP_ID":"224238344","APOAPSIS":"548.233","EPHEMERIS_TYPE":"0","MEAN_MOTION":"15.06394299","NORAD_CAT_ID":"44928","OBJECT_ID":"2020-001Q","EPOCH":"2023-02-02T08:34:47.909280","ARG_OF_PERICENTER":"98.8796","RA_OF_ASC_NODE":"25.3694","SEMIMAJOR_AXIS":"6925.366","TLE_LINE2":"2 44928  53.0547  25.3694 0001447  98.8796 261.2357 15.06394299169331","LAUNCH_DATE":"2020-01-07"},{"EPOCH":"2023-02-02T22:33:25.092000","ARG_OF_PERICENTER":"89.1089","OBJECT_ID":"2020-001R","LAUNCH_DATE":"2020-01-07","RA_OF_ASC_NODE":"22.7584","SEMIMAJOR_AXIS":"6925.341","TLE_LINE2":"2 44929  53.0553  22.7584 0001316  89.1089 271.0051 15.06402515169411","PERIOD":"95.592","ELEMENT_SET_NO":"999","APOAPSIS":"548.117","EPHEMERIS_TYPE":"0","MEAN_MOTION":"15.06402515","NORAD_CAT_ID":"44929","BSTAR":"-0.00000381380000","GP_ID":"224259396","INCLINATION":"53.0553","TIME_SYSTEM":"UTC","CENTER_NAME":"EARTH","RCS_SIZE":"LARGE","MEAN_MOTION_DDOT":"0.0000000000000","REF_FRAME":"TEME","COUNTRY_CODE":"US","SITE":"AFETR","FILE":"3769041","MEAN_MOTION_DOT":"-0.00000338","OBJECT_TYPE":"PAYLOAD","OBJECT_NAME":"STARLINK-1121","TLE_LINE1":"1 44929U 20001R   23033.93987375 -.00000338  00000-0 -38138-5 0  9997","MEAN_ANOMALY":"271.0051","DECAY_DATE":null,"CLASSIFICATION_TYPE":"U","ECCENTRICITY":"0.00013160","REV_AT_EPOCH":"16941","PERIAPSIS":"546.294","MEAN_ELEMENT_THEORY":"SGP4"},{"NORAD_CAT_ID":"44930","MEAN_MOTION":"15.06399013","APOAPSIS":"548.188","EPHEMERIS_TYPE":"0","GP_ID":"224237851","BSTAR":"0.00005158000000","ELEMENT_SET_NO":"999","PERIOD":"95.592","LAUNCH_DATE":"2020-01-07","SEMIMAJOR_AXIS":"6925.352","TLE_LINE2":"2 44930  53.0531  25.8872 0001402  93.8031 266.3118 15.06399013169316","RA_OF_ASC_NODE":"25.8872","ARG_OF_PERICENTER":"93.8031","EPOCH":"2023-02-02T05:50:15.271584","OBJECT_ID":"2020-001S","REV_AT_EPOCH":"16931","ECCENTRICITY":"0.00014020","PERIAPSIS":"546.246","MEAN_ELEMENT_THEORY":"SGP4","MEAN_MOTION_DOT":"0.00000487","OBJECT_TYPE":"PAYLOAD","CLASSIFICATION_TYPE":"U","OBJECT_NAME":"STARLINK-1123","TLE_LINE1":"1 44930U 20001S   23033.24323231  .00000487  00000-0  51580-4 0  9996","DECAY_DATE":null,"MEAN_ANOMALY":"266.3118","REF_FRAME":"TEME","MEAN_MOTION_DDOT":"0.0000000000000","COUNTRY_CODE":"US","FILE":"3768366","SITE":"AFETR","INCLINATION":"53.0531","RCS_SIZE":"LARGE","TIME_SYSTEM":"UTC","CENTER_NAME":"EARTH"},{"BSTAR":"0.00006204400000","GP_ID":"224259398","EPHEMERIS_TYPE":"0","APOAPSIS":"533.824","MEAN_MOTION":"15.11174674","NORAD_CAT_ID":"44931","ELEMENT_SET_NO":"999","PERIOD":"95.290","RA_OF_ASC_NODE":"12.8714","TLE_LINE2":"2 44931  53.0558  12.8714 0001745  95.0523 265.0667 15.11174674170246","SEMIMAJOR_AXIS":"6910.753","LAUNCH_DATE":"2020-01-07","OBJECT_ID":"2020-001T","EPOCH":"2023-02-02T08:36:40.282848","ARG_OF_PERICENTER":"95.0523","MEAN_ELEMENT_THEORY":"SGP4","REV_AT_EPOCH":"17024","ECCENTRICITY":"0.00017450","PERIAPSIS":"531.412","OBJECT_NAME":"STARLINK-1128","MEAN_ANOMALY":"265.0667","TLE_LINE1":"1 44931U 20001T   23033.35879957  .00000758  00000-0  62044-4 0  9998","DECAY_DATE":null,"CLASSIFICATION_TYPE":"U","MEAN_MOTION_DOT":"0.00000758","OBJECT_TYPE":"PAYLOAD","SITE":"AFETR","FILE":"3769042","MEAN_MOTION_DDOT":"0.0000000000000","REF_FRAME":"TEME","COUNTRY_CODE":"US","CENTER_NAME":"EARTH","TIME_SYSTEM":"UTC","RCS_SIZE":"LARGE","INCLINATION":"53.0558"},{"FILE":"3768366","SITE":"AFETR","MEAN_MOTION_DDOT":"0.0000000000000","REF_FRAME":"TEME","COUNTRY_CODE":"US","RCS_SIZE":"LARGE","TIME_SYSTEM":"UTC","CENTER_NAME":"EARTH","INCLINATION":"53.0545","MEAN_ELEMENT_THEORY":"SGP4","REV_AT_EPOCH":"17056","ECCENTRICITY":"0.00016290","PERIAPSIS":"546.076","CLASSIFICATION_TYPE":"U","OBJECT_NAME":"STARLINK-1130","TLE_LINE1":"1 44932U 20001U   23033.36486880  .00003682  00000-0  26594-3 0  9997","DECAY_DATE":null,"MEAN_ANOMALY":"267.1085","MEAN_MOTION_DOT":"0.00003682","OBJECT_TYPE":"PAYLOAD","TLE_LINE2":"2 44932  53.0545  25.3380 0001629  93.0090 267.1085 15.06403190170563","SEMIMAJOR_AXIS":"6925.339","RA_OF_ASC_NODE":"25.3380","LAUNCH_DATE":"2020-01-07","OBJECT_ID":"2020-001U","ARG_OF_PERICENTER":"93.0090","EPOCH":"2023-02-02T08:45:24.664320","GP_ID":"224238844","BSTAR":"0.00026594000000","NORAD_CAT_ID":"44932","MEAN_MOTION":"15.06403190","APOAPSIS":"548.332","EPHEMERIS_TYPE":"0","PERIOD":"95.592","ELEMENT_SET_NO":"999"},{"OBJECT_ID":"2020-001V","ARG_OF_PERICENTER":"93.8735","EPOCH":"2023-02-02T10:58:05.683008","TLE_LINE2":"2 44933  53.0552  24.9215 0001395  93.8735 266.2413 15.06402919170639","SEMIMAJOR_AXIS":"6925.340","RA_OF_ASC_NODE":"24.9215","LAUNCH_DATE":"2020-01-07","PERIOD":"95.592","ELEMENT_SET_NO":"999","GP_ID":"224259411","BSTAR":"0.00007906000000","NORAD_CAT_ID":"44933","APOAPSIS":"548.171","MEAN_MOTION":"15.06402919","EPHEMERIS_TYPE":"0","RCS_SIZE":"LARGE","CENTER_NAME":"EARTH","TIME_SYSTEM":"UTC","INCLINATION":"53.0552","FILE":"3769042","SITE":"AFETR","COUNTRY_CODE":"US","REF_FRAME":"TEME","MEAN_MOTION_DDOT":"0.0000000000000","CLASSIFICATION_TYPE":"U","TLE_LINE1":"1 44933U 20001V   23033.45701022  .00000896  00000-0  79060-4 0  9997","DECAY_DATE":null,"MEAN_ANOMALY":"266.2413","OBJECT_NAME":"STARLINK-1144","OBJECT_TYPE":"PAYLOAD","MEAN_MOTION_DOT":"0.00000896","MEAN_ELEMENT_THEORY":"SGP4","PERIAPSIS":"546.239","ECCENTRICITY":"0.00013950","REV_AT_EPOCH":"17063"}];
